{
"type": "FeatureCollection",
"name": "areas_afectadas",
"crs": { "type": "name", "properties": { "name": "urn:ogc:def:crs:OGC:1.3:CRS84" } },
"features": [
{ "type": "Feature", "properties": { "fid": 41, "nombre": "Centro Histórico", "tipo": "Zona de Monumentos Históricos", "causa1": "Grandes estructuras con predominio de cantera que absore y almacena calor", "causa2": "Falta de árbolado y/o áreas verdes", "causa3": null, "est_mean": 38.248223952987018, "est_median": 38.328998720000016, "est_max": 39.614174240000011 }, "geometry": { "type": "Polygon", "coordinates": [ [ [ -101.188084110511824, 19.700626879483423 ], [ -101.188237839516901, 19.700583493630724 ], [ -101.188394235383569, 19.700549722933182 ], [ -101.188552628426166, 19.700525711993567 ], [ -101.188712340408671, 19.70051156362339 ], [ -101.188872687448466, 19.70050733840278 ], [ -101.189032982944411, 19.700513054421183 ], [ -101.189192540516416, 19.700528687199942 ], [ -101.189350676944144, 19.70055416979714 ], [ -101.189506715092151, 19.70058939309429 ], [ -101.189659986809005, 19.700634206263523 ], [ -101.189809835787912, 19.700688417413424 ], [ -101.189955620376651, 19.700751794410611 ], [ -101.190096716324888, 19.700824065873704 ], [ -101.190232519456856, 19.700904922335219 ], [ -101.190362448258298, 19.700994017566604 ], [ -101.190485946366252, 19.701090970060655 ], [ -101.190602484951327, 19.701195364664965 ], [ -101.190711564982038, 19.701306754359472 ], [ -101.190812719361745, 19.701424662170403 ], [ -101.190905514928673, 19.701548583212535 ], [ -101.190989554311017, 19.701677986850928 ], [ -101.191064477628487, 19.701812318972962 ], [ -101.191129964033692, 19.701951004360893 ], [ -101.191185733086215, 19.702093449154827 ], [ -101.191231545953855, 19.702239043395423 ], [ -101.191267206435683, 19.702387163635759 ], [ -101.191292561802527, 19.702537175610797 ], [ -101.191307503451569, 19.702688436953224 ], [ -101.191311967371732, 19.702840299944132 ], [ -101.191305934418338, 19.70299211428647 ], [ -101.191289430395557, 19.703143229889726 ], [ -101.191262525946456, 19.703292999653623 ], [ -101.191225336251023, 19.703440782239156 ], [ -101.191178020533343, 19.703585944814908 ], [ -101.191120781380363, 19.703727865766979 ], [ -101.191053863874771, 19.70386593736097 ], [ -101.190977554545967, 19.703999568344479 ], [ -101.190892180143436, 19.704128186479107 ], [ -101.190798106237878, 19.704251240990995 ], [ -101.190695735656107, 19.704368204929601 ], [ -101.190585506756179, 19.7044785774243 ], [ -101.190467891550512, 19.704581885829469 ], [ -101.190343393684728, 19.704677687748649 ], [ -101.190212546280961, 19.704765572929194 ], [ -101.190075909654851, 19.704845165019261 ], [ -101.189934068916131, 19.704916123179689 ], [ -101.189787631462892, 19.704978143543688 ], [ -101.189637224380377, 19.705030960518346 ], [ -101.189483491755368, 19.705074347922096 ], [ -101.189327091917775, 19.705108119953447 ], [ -101.189168694621202, 19.70513213198684 ], [ -101.189008978174471, 19.705146281192018 ], [ -101.188848626536583, 19.705150506974572 ], [ -101.188688326387336, 19.705144791235462 ], [ -101.188528764186472, 19.705129158448543 ], [ -101.188370623233482, 19.705103675555875 ], [ -101.188214580741288, 19.705068451681012 ], [ -101.188061304935616, 19.705023637661704 ], [ -101.187911452193262, 19.704969425403899 ], [ -101.187765664230781, 19.704906047059943 ], [ -101.187624565356288, 19.704833774034263 ], [ -101.187488759795571, 19.704752915821082 ], [ -101.187358829104483, 19.704663818678913 ], [ -101.187235329678302, 19.704566864147662 ], [ -101.187118790368984, 19.70446246741459 ], [ -101.18700971022038, 19.704351075536184 ], [ -101.18690855633119, 19.704233165523586 ], [ -101.186815761854746, 19.70410924229968 ], [ -101.186731724144238, 19.703979836536746 ], [ -101.186656803051321, 19.703845502383754 ], [ -101.186591319385343, 19.703706815093199 ], [ -101.186535553539841, 19.70356436855754 ], [ -101.186489744292132, 19.703418772765893 ], [ -101.186454087781243, 19.703270651191733 ], [ -101.186428736668361, 19.703120638122936 ], [ -101.186413799483546, 19.7029693759455 ], [ -101.186409340161475, 19.702817512392645 ], [ -101.186415377768171, 19.702665697771018 ], [ -101.186431886419825, 19.702514582175926 ], [ -101.186458795394145, 19.70236481270749 ], [ -101.186495989433794, 19.702217030699675 ], [ -101.186543309240278, 19.702071868974009 ], [ -101.186600552156733, 19.701929949129838 ], [ -101.186667473036053, 19.701791878882609 ], [ -101.186743785291128, 19.701658249461683 ], [ -101.186829162122379, 19.701529633078732 ], [ -101.186923237917583, 19.701406580477624 ], [ -101.187025609817596, 19.701289618576222 ], [ -101.18713583944178, 19.701179248210284 ], [ -101.187253454765312, 19.701075941989014 ], [ -101.187377952140594, 19.700980142271501 ], [ -101.187508798453877, 19.700892259272731 ], [ -101.187645433408164, 19.700812669307194 ], [ -101.187787271922318, 19.700741713177724 ], [ -101.187933706636329, 19.700679694716349 ], [ -101.188084110511824, 19.700626879483423 ] ] ] } },
{ "type": "Feature", "properties": { "fid": 66, "nombre": "Colonia Industrial", "tipo": "Zona Industrial", "causa1": "Grandes estructuras con predominio de concreto que absorben y almacena calor", "causa2": "Patios de maniobras y estacionamientos con predominio de superficie de asfalto que absorbe y almacena calor", "causa3": "Falta de árbolado y/o áreas verdes", "est_mean": 38.076701150697701, "est_median": 38.079483260000018, "est_max": 39.070709060000013 }, "geometry": { "type": "Polygon", "coordinates": [ [ [ -101.198169894733141, 19.707009492242342 ], [ -101.1982281702074, 19.706972697547307 ], [ -101.198288861911379, 19.706939591209842 ], [ -101.198351709956199, 19.706910314993795 ], [ -101.198416445219905, 19.706884994262012 ], [ -101.198482790499767, 19.706863737439502 ], [ -101.198550461699256, 19.706846635549191 ], [ -101.198619169044562, 19.706833761822242 ], [ -101.198688618325249, 19.706825171384413 ], [ -101.198758512154214, 19.706820901020066 ], [ -101.198828551240865, 19.706820969014686 ], [ -101.198898435672746, 19.706825375076576 ], [ -101.198967866199681, 19.706834100338106 ], [ -101.199036545515128, 19.706847107436531 ], [ -101.199104179529158, 19.706864340673963 ], [ -101.199170478627721, 19.706885726255898 ], [ -101.199235158912728, 19.706911172607168 ], [ -101.19929794341769, 19.706940570764072 ], [ -101.1993585632936, 19.706973794840959 ], [ -101.199416758960183, 19.707010702569249 ], [ -101.199472281217325, 19.7070511359066 ], [ -101.199524892312212, 19.70709492171369 ], [ -101.199574366957364, 19.707141872495487 ], [ -101.199620493295299, 19.707191787204188 ], [ -101.199663073805809, 19.707244452100035 ], [ -101.199701926151661, 19.707299641666548 ], [ -101.199736883959503, 19.707357119576169 ], [ -101.199767797532303, 19.707416639702231 ], [ -101.199794534490366, 19.707477947172823 ], [ -101.199816980338355, 19.707540779462196 ], [ -101.199835038955527, 19.707604867514878 ], [ -101.199848633007505, 19.707669936897773 ], [ -101.199857704277449, 19.707735708975299 ], [ -101.199862213915452, 19.707801902102517 ], [ -101.199862142604999, 19.707868232831192 ], [ -101.199857490645826, 19.707934417123482 ], [ -101.199848277952597, 19.708000171568294 ], [ -101.199834543969885, 19.708065214594818 ], [ -101.199816347503287, 19.708129267678331 ], [ -101.199793766467636, 19.708192056532834 ], [ -101.199766897553559, 19.708253312285635 ], [ -101.199735855813501, 19.708312772628723 ], [ -101.199700774169045, 19.708370182942001 ], [ -101.199661802841845, 19.708425297383677 ], [ -101.199619108710422, 19.708477879943025 ], [ -101.199572874595603, 19.708527705451043 ], [ -101.199523298477658, 19.708574560544704 ], [ -101.199470592648581, 19.708618244580663 ], [ -101.199414982803006, 19.708658570494507 ], [ -101.199356707071743, 19.708695365601766 ], [ -101.199296015002076, 19.708728472337505 ], [ -101.199233166489108, 19.708757748931049 ], [ -101.199168430662823, 19.708783070013116 ], [ -101.199102084735557, 19.708804327152674 ], [ -101.199034412814939, 19.708821429321382 ], [ -101.198965704687154, 19.708834303283318 ], [ -101.198896254575928, 19.708842893908706 ], [ -101.198826359882659, 19.708847164409971 ], [ -101.198756319912704, 19.708847096499284 ], [ -101.198686434593611, 19.708842690466906 ], [ -101.198617003190748, 19.708833965179963 ], [ -101.198548323025662, 19.708820958001635 ], [ -101.198480688202807, 19.708803724631171 ], [ -101.198414388350074, 19.708782338865358 ], [ -101.198349707378455, 19.708756892282512 ], [ -101.198286922266178, 19.708727493850287 ], [ -101.198226301872651, 19.708694269459055 ], [ -101.198168105787019, 19.70865736138278 ], [ -101.198112583216542, 19.708616927669745 ], [ -101.198059971919406, 19.708573141465699 ], [ -101.198010497186559, 19.708526190272472 ], [ -101.19796437087696, 19.708476275144903 ], [ -101.19792179051035, 19.708423609829929 ], [ -101.1978829384215, 19.708368419851183 ], [ -101.197847980979361, 19.708310941543285 ], [ -101.197817067874709, 19.708251421039723 ], [ -101.197790331479212, 19.708190113218862 ], [ -101.197767886278626, 19.708127280612437 ], [ -101.19774982838257, 19.708063192281351 ], [ -101.197736235113112, 19.707998122663472 ], [ -101.19772716467368, 19.707932350398398 ], [ -101.197722655900009, 19.707866157134251 ], [ -101.197722728093751, 19.707799826321651 ], [ -101.197727380940137, 19.707733641999841 ], [ -101.19773659450928, 19.707667887580449 ], [ -101.197750329341631, 19.707602844633826 ], [ -101.197768526617068, 19.707538791683348 ], [ -101.197791108406889, 19.707476003012712 ], [ -101.197817978007564, 19.707414747491487 ], [ -101.197849020354937, 19.707355287423713 ], [ -101.197884102517008, 19.707297877424775 ], [ -101.197923074263272, 19.707242763331095 ], [ -101.197965768708031, 19.707190181147439 ], [ -101.198012003025099, 19.707140356036369 ], [ -101.198061579230725, 19.707093501354144 ], [ -101.198114285031465, 19.70704981773704 ], [ -101.198169894733141, 19.707009492242342 ] ] ] } },
{ "type": "Feature", "properties": { "fid": 4, "nombre": "Estadio Morelos", "tipo": "Estacionamiento", "causa1": "Estacionamiento con predominio de superficie de asfalto que absorbe y almacena calor", "causa2": "Falta de árbolado y/o áreas verdes", "causa3": null, "est_mean": 40.375214072413826, "est_median": 40.294360220000044, "est_max": 41.83246922000001 }, "geometry": { "type": "Polygon", "coordinates": [ [ [ -101.230111089615818, 19.718847290038038 ], [ -101.230154154168233, 19.718814198686353 ], [ -101.230199411946742, 19.718783845403816 ], [ -101.23024666915137, 19.718756360166143 ], [ -101.230295723420838, 19.718731860667724 ], [ -101.230346364698917, 19.718710451817604 ], [ -101.230398376133991, 19.718692225290312 ], [ -101.23045153500756, 19.71867725913328 ], [ -101.230505613687967, 19.71866561743273 ], [ -101.230560380605013, 19.718657350039148 ], [ -101.23061560124161, 19.718652492353961 ], [ -101.230671039137988, 19.718651065177863 ], [ -101.230726456904051, 19.718653074621816 ], [ -101.230781617236005, 19.718658512080861 ], [ -101.230836283932391, 19.718667354270949 ], [ -101.230890222905472, 19.718679563328696 ], [ -101.230943203183671, 19.718695086973486 ], [ -101.230994997900396, 19.718713858731327 ], [ -101.231045385265617, 19.718735798219537 ], [ -101.231094149515499, 19.718760811490871 ], [ -101.23114108183627, 19.718788791435856 ], [ -101.231185981258434, 19.718819618241429 ], [ -101.231228655517171, 19.718853159903937 ], [ -101.231268921875795, 19.718889272794392 ], [ -101.231306607908138, 19.718927802273488 ], [ -101.231341552236913, 19.71896858335375 ], [ -101.231373605224746, 19.719011441406032 ], [ -101.231402629615005, 19.719056192907242 ], [ -101.23142850111951, 19.719102646226222 ], [ -101.231451108950822, 19.71915060244428 ], [ -101.231470356296597, 19.719199856207005 ], [ -101.231486160734306, 19.719250196603543 ], [ -101.231498454584141, 19.719301408069793 ], [ -101.231507185198922, 19.719353271311427 ], [ -101.231512315189519, 19.719405564242912 ], [ -101.231513822585114, 19.719458062938546 ], [ -101.2315117009273, 19.719510542591276 ], [ -101.231505959297735, 19.71956277847541 ], [ -101.231496622279423, 19.719614546908844 ], [ -101.231483729851433, 19.719665626211 ], [ -101.231467337217794, 19.719715797652011 ], [ -101.23144751457113, 19.719764846389417 ], [ -101.231424346792181, 19.719812562388146 ], [ -101.231397933086342, 19.719858741319939 ], [ -101.231368386558884, 19.719903185438323 ], [ -101.231335833730725, 19.719945704425413 ], [ -101.231300413996621, 19.719986116206922 ], [ -101.231262279028314, 19.720024247731821 ], [ -101.231221592124996, 19.720059935713444 ], [ -101.231178527514174, 19.720093027328694 ], [ -101.231133269605479, 19.720123380872497 ], [ -101.231086012201075, 19.720150866364662 ], [ -101.231036957665694, 19.720175366106442 ], [ -101.230986316060097, 19.720196775184625 ], [ -101.230934304241501, 19.720215001920788 ], [ -101.230881144934983, 19.720229968263919 ], [ -101.230827065779621, 19.720241610124617 ], [ -101.230772298353685, 19.720249877649653 ], [ -101.230717077183002, 19.720254735435358 ], [ -101.230661638736507, 19.720256162679298 ], [ -101.230606220413662, 19.720254153269369 ], [ -101.230551059527841, 19.720248715809937 ], [ -101.230496392289922, 19.720239873585072 ], [ -101.230442452796922, 19.720227664458744 ], [ -101.230389472029373, 19.720212140712736 ], [ -101.230337676862177, 19.720193368822777 ], [ -101.230287289093056, 19.720171429173817 ], [ -101.230238524492819, 19.720146415715842 ], [ -101.23019159188118, 19.720118435561517 ], [ -101.230146692232665, 19.720087608527503 ], [ -101.230104017815918, 19.720054066621341 ], [ -101.230063751370338, 19.720017953476201 ], [ -101.230026065323599, 19.719979423735744 ], [ -101.229991121053231, 19.719938642391909 ], [ -101.229959068195598, 19.719895784078361 ], [ -101.229930044005101, 19.719851032322666 ], [ -101.22990417276651, 19.719804578760328 ], [ -101.22988156526273, 19.719756622314204 ], [ -101.229862318300476, 19.719707368342611 ], [ -101.229846514295701, 19.719657027759972 ], [ -101.22983422092085, 19.719605816133566 ], [ -101.229825490814946, 19.719553952760482 ], [ -101.229820361358421, 19.719501659728483 ], [ -101.229818854512956, 19.719449160965006 ], [ -101.229820976727538, 19.719396681278251 ], [ -101.229826718910985, 19.719344445394501 ], [ -101.22983605647083, 19.719292676995842 ], [ -101.229848949418709, 19.719241597762274 ], [ -101.229865342541729, 19.719191426422483 ], [ -101.229885165638862, 19.719142377817182 ], [ -101.229908333821697, 19.719094661979209 ], [ -101.229934747877905, 19.719048483234065 ], [ -101.229964294696217, 19.719004039325004 ], [ -101.229996847750741, 19.718961520566364 ], [ -101.230032267642841, 19.718921109028511 ], [ -101.230070402698118, 19.718882977758302 ], [ -101.230111089615818, 19.718847290038038 ] ] ] } },
{ "type": "Feature", "properties": { "fid": 5, "nombre": "Deportivo Wensceslao", "tipo": "Deportivo", "causa1": "Superficies de pasto artificial que absorben y almacenan calor", "causa2": "Ausencia de evapotranspiración, a diferencia del pasto natural", "causa3": "Falta de árbolado y/o áreas verdes", "est_mean": 42.253984329285736, "est_median": 42.078566660000035, "est_max": 43.968731720000051 }, "geometry": { "type": "Polygon", "coordinates": [ [ [ -101.225873121349409, 19.716249433071972 ], [ -101.225919379600029, 19.716221307208407 ], [ -101.225967481267801, 19.716196106631401 ], [ -101.226017220375581, 19.716173939252137 ], [ -101.226068383934816, 19.716154899993263 ], [ -101.226120752857611, 19.716139070382457 ], [ -101.226174102894817, 19.716126518203325 ], [ -101.226228205596328, 19.716117297205159 ], [ -101.22628282928919, 19.716111446872816 ], [ -101.22633774006971, 19.71610899225761 ], [ -101.22639270280493, 19.716109943870098 ], [ -101.226447482139463, 19.716114297635048 ], [ -101.226501843503314, 19.716122034908903 ], [ -101.226555554116217, 19.716133122559626 ], [ -101.226608383984399, 19.716147513108556 ], [ -101.22666010688539, 19.716165144933743 ], [ -101.226710501336711, 19.716185942533777 ], [ -101.226759351544246, 19.716209816851094 ], [ -101.226806448326201, 19.716236665653327 ], [ -101.226851590008891, 19.716266373971063 ], [ -101.226894583290232, 19.716298814590139 ], [ -101.226935244067533, 19.716333848596346 ], [ -101.22697339822578, 19.716371325970279 ], [ -101.227008882383245, 19.716411086229705 ], [ -101.227041544591103, 19.716452959116747 ], [ -101.22707124498406, 19.716496765326934 ], [ -101.227097856379373, 19.716542317276964 ], [ -101.227121264821378, 19.716589419907947 ], [ -101.227141370069617, 19.716637871520664 ], [ -101.227158086027998, 19.716687464639207 ], [ -101.227171341113575, 19.716737986899478 ], [ -101.227181078563135, 19.71678922195844 ], [ -101.227187256676274, 19.716840950420586 ], [ -101.227189848994044, 19.71689295077741 ], [ -101.227188844412282, 19.716945000355881 ], [ -101.227184247229289, 19.716996876272002 ], [ -101.227176077127368, 19.717048356385185 ], [ -101.22716436908874, 19.717099220249544 ], [ -101.227149173245692, 19.717149250057819 ], [ -101.227130554666005, 19.717198231574137 ], [ -101.227108593074362, 19.717245955051325 ], [ -101.227083382511069, 19.717292216129174 ], [ -101.227055030929293, 19.717336816709537 ], [ -101.227023659732893, 19.717379565804581 ], [ -101.22698940325661, 19.717420280354716 ], [ -101.226952408190812, 19.717458786012486 ], [ -101.22691283295336, 19.717494917889173 ], [ -101.226870847011256, 19.717528521260878 ], [ -101.226826630155003, 19.71755945223115 ], [ -101.226780371728609, 19.717587578347182 ], [ -101.226732269818939, 19.717612779167002 ], [ -101.226682530407274, 19.717634946775274 ], [ -101.226631366487354, 19.717653986245427 ], [ -101.226578997153268, 19.717669816046161 ], [ -101.226525646661173, 19.717682368390648 ], [ -101.226471543469003, 19.71769158952673 ], [ -101.226416919258057, 19.717697439967218 ], [ -101.226362007940935, 19.717699894658928 ], [ -101.226307044659748, 19.717698943090014 ], [ -101.226252264779234, 19.71769458933495 ], [ -101.226197902878724, 19.717686852037115 ], [ -101.226144191747665, 19.717675764328973 ], [ -101.226091361388725, 19.717661373690163 ], [ -101.226039638032745, 19.717643741744169 ], [ -101.225989243169963, 19.717622943994481 ], [ -101.225940392601586, 19.717599069501205 ], [ -101.225893295515561, 19.717572220499722 ], [ -101.225848153590789, 19.717542511962861 ], [ -101.225805160133461, 19.717510071108538 ], [ -101.225764499249323, 19.717475036854978 ], [ -101.225726345055165, 19.717437559225822 ], [ -101.225690860933369, 19.717397798707669 ], [ -101.22565819883215, 19.717355925562821 ], [ -101.225628498614967, 19.717312119100171 ], [ -101.225601887461551, 19.717266566907327 ], [ -101.225578479323431, 19.717219464047336 ], [ -101.225558374435863, 19.717171012223346 ], [ -101.225541658888787, 19.717121418914857 ], [ -101.225528404258085, 19.71707089648925 ], [ -101.225518667299184, 19.717019661292372 ], [ -101.22551248970413, 19.716967932722078 ], [ -101.225509897922976, 19.716915932288746 ], [ -101.225510903050704, 19.716863882666704 ], [ -101.225515500779679, 19.716812006740707 ], [ -101.225523671418259, 19.716760526651491 ], [ -101.225535379975028, 19.716709662844547 ], [ -101.225550576308848, 19.716659633126152 ], [ -101.225569195343539, 19.716610651730647 ], [ -101.225591157346599, 19.716562928403114 ], [ -101.225616368270764, 19.716516667501221 ], [ -101.225644720156609, 19.716472067120108 ], [ -101.225676091595105, 19.716429318244185 ], [ -101.225710348247361, 19.7163886039293 ], [ -101.225747343420011, 19.716350098518884 ], [ -101.225786918693359, 19.716313966897427 ], [ -101.22582890459978, 19.716280363784438 ], [ -101.225873121349409, 19.716249433071972 ] ] ] } },
{ "type": "Feature", "properties": { "fid": 6, "nombre": "Fuerzas Básicas Morelia", "tipo": "Deportivo", "causa1": "Superficies de pasto artificial que absorben y almacenan calor", "causa2": "Ausencia de evapotranspiración, a diferencia del pasto natural", "causa3": "Falta de árbolado y/o áreas verdes", "est_mean": 43.048843305161306, "est_median": 42.9569978, "est_max": 45.277833380000061 }, "geometry": { "type": "Polygon", "coordinates": [ [ [ -101.136305185487672, 19.725025030996655 ], [ -101.136358027837218, 19.725006526983531 ], [ -101.136412035061511, 19.724991335266662 ], [ -101.136466975896155, 19.724979520898067 ], [ -101.136522615079244, 19.724971134467662 ], [ -101.13657871435862, 19.724966211886567 ], [ -101.136635033512093, 19.724964774233374 ], [ -101.136691331376056, 19.724966827663923 ], [ -101.136747366878069, 19.724972363384872 ], [ -101.136802900069213, 19.724981357691441 ], [ -101.136857693151384, 19.724993772068881 ], [ -101.13691151149564, 19.725009553357381 ], [ -101.136964124646795, 19.725028633979736 ], [ -101.137015307310236, 19.725050932230662 ], [ -101.137064840316597, 19.725076352626729 ], [ -101.137112511560247, 19.725104786315107 ], [ -101.137158116907514, 19.725136111539783 ], [ -101.137201461070774, 19.72517019416286 ], [ -101.137242358444681, 19.725206888238919 ], [ -101.137280633901, 19.725246036639994 ], [ -101.137316123538412, 19.725287471728336 ], [ -101.137348675384416, 19.725331016074289 ], [ -101.137378150046132, 19.725376483215985 ], [ -101.137404421307238, 19.72542367845784 ], [ -101.137427376668342, 19.72547239970417 ], [ -101.137446917828896, 19.725522438324628 ], [ -101.137462961108113, 19.725573580047534 ], [ -101.137475437803303, 19.72562560587739 ], [ -101.13748429448421, 19.725678293032647 ], [ -101.137489493221807, 19.725731415899684 ], [ -101.137491011750726, 19.725784746998862 ], [ -101.137488843564782, 19.725838057958672 ], [ -101.137482997944772, 19.725891120493618 ], [ -101.137473499918883, 19.725943707381752 ], [ -101.137460390155553, 19.725995593437688 ], [ -101.137443724789335, 19.72604655647692 ], [ -101.137423575180691, 19.726096378267201 ], [ -101.13740002761034, 19.726144845463086 ], [ -101.13737318290994, 19.726191750519529 ], [ -101.137343156030326, 19.72623689258063 ], [ -101.13731007554928, 19.726280078339766 ], [ -101.137274083121042, 19.726321122867365 ], [ -101.137235332869651, 19.72635985040284 ], [ -101.137193990729102, 19.726396095107265 ], [ -101.137150233732712, 19.726429701773505 ], [ -101.137104249255032, 19.726460526490925 ], [ -101.137056234209567, 19.726488437261619 ], [ -101.137006394205443, 19.726513314565715 ], [ -101.136954942666961, 19.726535051873167 ], [ -101.136902099919709, 19.726553556099994 ], [ -101.136848092246993, 19.726568748006873 ], [ -101.136793150920852, 19.72658056253853 ], [ -101.136737511211606, 19.726588949102254 ], [ -101.136681411380408, 19.726593871784651 ], [ -101.1366250916589, 19.726595309505395 ], [ -101.136568793220405, 19.726593256107499 ], [ -101.136512757147187, 19.726587720383723 ], [ -101.136457223397969, 19.72657872603892 ], [ -101.136402429780347, 19.726566311588474 ], [ -101.136348610932487, 19.72655053019345 ], [ -101.136295997318143, 19.726531449432883 ], [ -101.136244814239888, 19.726509151014412 ], [ -101.136195280874162, 19.726483730424352 ], [ -101.136147609332752, 19.726455296518836 ], [ -101.136102003754445, 19.726423971057589 ], [ -101.136058659430773, 19.726389888182567 ], [ -101.136017761969853, 19.72635319384349 ], [ -101.135979486501427, 19.726314045172838 ], [ -101.135943996927026, 19.726272609812959 ], [ -101.135911445218014, 19.726229065198165 ], [ -101.135881970764956, 19.726183597794918 ], [ -101.135855699780649, 19.726136402303272 ], [ -101.135832744759682, 19.726087680823195 ], [ -101.135813203996804, 19.726037641989031 ], [ -101.135797161166039, 19.725986500076111 ], [ -101.135784684962331, 19.725934474083203 ], [ -101.135775828807581, 19.72588178679462 ], [ -101.13577063062182, 19.725828663826274 ], [ -101.135769112660924, 19.725775332659548 ], [ -101.135771281421412, 19.725722021667082 ], [ -101.135777127612613, 19.725668959134964 ], [ -101.135786626196591, 19.725616372285074 ], [ -101.135799736495372, 19.725564486302144 ], [ -101.135816402365194, 19.725513523369429 ], [ -101.135836552437027, 19.725463701717363 ], [ -101.135860100422192, 19.725415234689024 ], [ -101.135886945481943, 19.72536832982658 ], [ -101.135916972659317, 19.725323187982617 ], [ -101.135950053371417, 19.725280002460046 ], [ -101.135986045960067, 19.725238958184395 ], [ -101.136024796298443, 19.725200230911931 ], [ -101.136066138451113, 19.725163986477089 ], [ -101.136109895384521, 19.725130380082387 ], [ -101.136155879725194, 19.725099555633811 ], [ -101.136203894561987, 19.725071645124665 ], [ -101.13625373428934, 19.725046768070353 ], [ -101.136305185487672, 19.725025030996655 ] ] ] } },
{ "type": "Feature", "properties": { "fid": 9, "nombre": "Deportivo Bicentenario", "tipo": "Deportivo", "causa1": "Superficies de pasto artificial que absorben y almacenan calor", "causa2": "Plaza con predominio de superficie de concreto que absorbe y almacena calor", "causa3": "Falta de árbolado y/o áreas verdes", "est_mean": 38.449493746896565, "est_median": 38.55458804, "est_max": 42.18452528 }, "geometry": { "type": "Polygon", "coordinates": [ [ [ -101.189470344353651, 19.728755927479824 ], [ -101.189568251128549, 19.728746829836638 ], [ -101.189666576632874, 19.728743815149848 ], [ -101.189764899832795, 19.728746896327383 ], [ -101.1898627997045, 19.728756060174462 ], [ -101.189959857036911, 19.728771267450039 ], [ -101.19005565622659, 19.72879245303492 ], [ -101.190149787057209, 19.728819526210508 ], [ -101.190241846456033, 19.72885237104731 ], [ -101.190331440219737, 19.728890846901351 ], [ -101.190418184702295, 19.728934789016314 ], [ -101.190501708457631, 19.728984009229055 ], [ -101.190581653830193, 19.729038296775279 ], [ -101.190657678486275, 19.729097419191969 ], [ -101.190729456879865, 19.72916112331275 ], [ -101.190796681646759, 19.729229136351922 ], [ -101.190859064920573, 19.729301167072499 ], [ -101.190916339565447, 19.729376907033181 ], [ -101.19096826032002, 19.729456031909102 ], [ -101.191014604847709, 19.729538202880544 ], [ -101.191055174688856, 19.729623068083711 ], [ -101.191089796110646, 19.729710264117386 ], [ -101.19111832085116, 19.729799417599029 ], [ -101.19114062675439, 19.729890146763491 ], [ -101.191156618293491, 19.729982063097843 ], [ -101.19116622698003, 19.730074773004898 ], [ -101.191169411657341, 19.730167879488668 ], [ -101.191166158677092, 19.730260983854301 ], [ -101.19115648195779, 19.730353687415334 ], [ -101.191140422925443, 19.730445593200908 ], [ -101.191118050336357, 19.730536307655679 ], [ -101.191089459982834, 19.730625442325071 ], [ -101.191054774283231, 19.730712615518733 ], [ -101.191014141757904, 19.730797453945041 ], [ -101.190967736393333, 19.730879594309616 ], [ -101.190915756897297, 19.730958684871052 ], [ -101.190858425847964, 19.73103438694724 ], [ -101.190795988741087, 19.731106376365656 ], [ -101.190728712938622, 19.73117434485167 ], [ -101.190656886524053, 19.73123800134865 ], [ -101.190580817068735, 19.731297073264439 ], [ -101.190500830314818, 19.731351307638718 ], [ -101.190417268780422, 19.731400472226273 ], [ -101.19033049029278, 19.731444356491661 ], [ -101.190240866456008, 19.731482772510802 ], [ -101.190148781059648, 19.731515555775761 ], [ -101.190054628435206, 19.731542565899357 ], [ -101.18995881176734, 19.731563687216308 ], [ -101.189861741367253, 19.731578829278622 ], [ -101.189763832915574, 19.73158792724298 ], [ -101.189665505682058, 19.731590942148451 ], [ -101.189567180730123, 19.731587861083348 ], [ -101.189469279113524, 19.731578697240529 ], [ -101.18937222007321, 19.731563489860967 ], [ -101.189276419241878, 19.731542304065638 ], [ -101.189182286863897, 19.73151523057674 ], [ -101.189090226038488, 19.731482385329123 ], [ -101.189000630993405, 19.731443908973795 ], [ -101.188913885396587, 19.731399966275653 ], [ -101.188830360713169, 19.731350745407806 ], [ -101.188750414614589, 19.731296457145774 ], [ -101.188674389446987, 19.731237333964817 ], [ -101.188602610765088, 19.731173629044381 ], [ -101.188535385938067, 19.731105615183843 ], [ -101.188473002833348, 19.731033583634261 ], [ -101.188415728583877, 19.730957842851115 ], [ -101.188363808444237, 19.730878717173329 ], [ -101.188317464740493, 19.730796545434359 ], [ -101.188276895918207, 19.730711679511124 ], [ -101.188242275692772, 19.730624482817159 ], [ -101.188213752305657, 19.73053532874631 ], [ -101.188191447889679, 19.730444599073795 ], [ -101.18817545794623, 19.730352682321257 ], [ -101.188165850936457, 19.730259972093027 ], [ -101.188162667988337, 19.730166865390576 ], [ -101.188165922720614, 19.730073760912511 ], [ -101.18817560118481, 19.729981057347217 ], [ -101.188191661925032, 19.729889151665628 ], [ -101.188214036155813, 19.729798437421305 ], [ -101.188242628056685, 19.729709303065228 ], [ -101.188277315182859, 19.729622130282372 ], [ -101.188317948989564, 19.729537292357353 ], [ -101.188364355468408, 19.729455152575969 ], [ -101.188416335892541, 19.729376062669623 ], [ -101.188473667667878, 19.729300361309257 ], [ -101.188536105286289, 19.729228372655108 ], [ -101.188603381377035, 19.729160404968749 ], [ -101.188675207851702, 19.729096749293127 ], [ -101.188751277137953, 19.729037678206339 ], [ -101.188831263496482, 19.728983444654538 ], [ -101.188914824415946, 19.728934280868838 ], [ -101.189001602079642, 19.728890397370979 ], [ -101.189091224897552, 19.728851982071916 ], [ -101.189183309097544, 19.728819199467232 ], [ -101.189277460368601, 19.728792189932843 ], [ -101.189373275549229, 19.72877106912394 ], [ -101.189470344353651, 19.728755927479824 ] ] ] } },
{ "type": "Feature", "properties": { "fid": 33, "nombre": "Plaza la Huerta", "tipo": "Centro Comercial", "causa1": "Grandes estructuras con predominio de concreto que absorben y almacena calor", "causa2": "Grandes avenidas con predominio de superficie de asfalto que absorbe y almacena calor", "causa3": "Falta de árbolado y/o áreas verdes", "est_mean": 38.555822937548413, "est_median": 39.357822740000017, "est_max": 42.088820720000058 }, "geometry": { "type": "Polygon", "coordinates": [ [ [ -101.217528646468637, 19.67801876683113 ], [ -101.21763815697642, 19.677950904788311 ], [ -101.217752118590724, 19.677889972328092 ], [ -101.217870043318882, 19.677836230363734 ], [ -101.217991426199873, 19.677789909018227 ], [ -101.218115747466356, 19.677751206638902 ], [ -101.218242474770292, 19.677720288948311 ], [ -101.218371065462236, 19.677697288334617 ], [ -101.218500968914739, 19.67768230328485 ], [ -101.218631628879947, 19.677675397963224 ], [ -101.218762485871238, 19.677676601936462 ], [ -101.218892979558689, 19.677685910047213 ], [ -101.219022551168095, 19.677703282436216 ], [ -101.219150645873455, 19.677728644712936 ], [ -101.219276715172498, 19.677761888274155 ], [ -101.219400219235084, 19.677802870768932 ], [ -101.219520629214529, 19.677851416708172 ], [ -101.219637429511977, 19.677907318216022 ], [ -101.219750119983956, 19.677970335919909 ], [ -101.2198582180839, 19.67804019997547 ], [ -101.219961260928216, 19.678116611221959 ], [ -101.220058807278321, 19.678199242463155 ], [ -101.22015043943, 19.67828773986832 ], [ -101.220235765001945, 19.67838172448722 ], [ -101.220314418615985, 19.678480793872662 ], [ -101.220386063461774, 19.678584523803689 ], [ -101.220450392738996, 19.678692470102025 ], [ -101.220507130971356, 19.678804170533905 ], [ -101.220556035186277, 19.678919146789308 ], [ -101.220596895955609, 19.67903690653003 ], [ -101.220629538292528, 19.679156945497759 ], [ -101.220653822401232, 19.679278749673355 ], [ -101.22066964427583, 19.679401797477762 ], [ -101.220676936145907, 19.67952556200548 ], [ -101.22067566676715, 19.679649513280701 ], [ -101.220665841555473, 19.6797731205268 ], [ -101.220647502564105, 19.679895854439085 ], [ -101.220620728303871, 19.680017189451384 ], [ -101.220585633407381, 19.680136605986633 ], [ -101.220542368138396, 19.680253592681773 ], [ -101.220491117748765, 19.680367648577565 ], [ -101.220432101685333, 19.680478285263877 ], [ -101.22036557265065, 19.680585028971148 ], [ -101.220291815520895, 19.68068742259932 ], [ -101.22021114612636, 19.680785027675277 ], [ -101.220123909899058, 19.680877426230637 ], [ -101.220030480393689, 19.680964222591673 ], [ -101.219931257688131, 19.681045045073809 ], [ -101.219826666670158, 19.681119547573378 ], [ -101.219717155218135, 19.681187411049869 ], [ -101.219603192282932, 19.681248344892257 ], [ -101.21948526587984, 19.681302088163623 ], [ -101.219363880998557, 19.681348410718627 ], [ -101.219239557440602, 19.681387114189224 ], [ -101.219112827593221, 19.681418032834205 ], [ -101.218984234149431, 19.681441034249065 ], [ -101.218854327783731, 19.681456019933083 ], [ -101.218723664793814, 19.68146292571118 ], [ -101.218592804718057, 19.68146172200883 ], [ -101.218462307939191, 19.681452413978725 ], [ -101.218332733284299, 19.681435041478778 ], [ -101.218204635631452, 19.681409678901403 ], [ -101.21807856353341, 19.681376434854975 ], [ -101.217955056868178, 19.681335451698743 ], [ -101.217834644526974, 19.681286904933089 ], [ -101.217717842149071, 19.68123100244803 ], [ -101.21760514991351, 19.681167983632854 ], [ -101.217497050397085, 19.681098118350942 ], [ -101.217394006507575, 19.681021705784016 ], [ -101.217296459501469, 19.680939073150896 ], [ -101.217204827094221, 19.680850574306131 ], [ -101.217119501671476, 19.680756588224597 ], [ -101.217040848608875, 19.680657517378503 ], [ -101.21696920470734, 19.6805537860138 ], [ -101.216904876751002, 19.680445838333288 ], [ -101.216848140193576, 19.6803341365944 ], [ -101.216799237978961, 19.680219159129511 ], [ -101.216758379501115, 19.680101398297513 ], [ -101.216725739707627, 19.679981358375393 ], [ -101.216701458350755, 19.679859553398622 ], [ -101.216685639389368, 19.679736504959973 ], [ -101.216678350544001, 19.679612739975788 ], [ -101.216679623007195, 19.679488788429676 ], [ -101.216689451310302, 19.679365181102927 ], [ -101.216707793347169, 19.679242447301586 ], [ -101.216734570554863, 19.679121112589936 ], [ -101.216769668250379, 19.679001696539899 ], [ -101.216812936121997, 19.678884710506232 ], [ -101.216864188873402, 19.678770655436839 ], [ -101.216923207017288, 19.678660019727733 ], [ -101.216989737815553, 19.678553277131755 ], [ -101.217063496361789, 19.678450884729934 ], [ -101.217144166801518, 19.67835328097441 ], [ -101.217231403684821, 19.678260883810978 ], [ -101.217324833445758, 19.678174088889538 ], [ -101.217424056002116, 19.678093267870043 ], [ -101.217528646468637, 19.67801876683113 ] ] ] } },
{ "type": "Feature", "properties": { "fid": 44, "nombre": "Las Américas", "tipo": "Centro Comercial", "causa1": "Grandes estructuras con predominio de concreto que absorben y almacena calor", "causa2": "Grandes avenidas con predominio de superficie de asfalto que absorbe y almacena calor", "causa3": "Falta de árbolado y/o áreas verdes", "est_mean": 38.436388139069798, "est_median": 38.677636760000041, "est_max": 42.81002294000001 }, "geometry": { "type": "Polygon", "coordinates": [ [ [ -101.158721079406902, 19.688209815491152 ], [ -101.1589006396771, 19.688173837425431 ], [ -101.159082299751446, 19.688149059537221 ], [ -101.159265281769848, 19.688135587920637 ], [ -101.159448802212964, 19.688133480256781 ], [ -101.159632075256852, 19.688142745566886 ], [ -101.159814316137229, 19.688163344173756 ], [ -101.159994744509348, 19.688195187871681 ], [ -101.160172587788864, 19.688238140304147 ], [ -101.160347084459517, 19.688292017547699 ], [ -101.160517487333436, 19.688356588899399 ], [ -101.160683066750195, 19.68843157786463 ], [ -101.160843113700679, 19.688516663340916 ], [ -101.160996942862866, 19.688611480992712 ], [ -101.161143895535915, 19.68871562481133 ], [ -101.161283342460621, 19.688828648853288 ], [ -101.161414686513666, 19.688950069149584 ], [ -101.161537365264479, 19.689079365777872 ], [ -101.161650853383534, 19.689215985088524 ], [ -101.161754664891902, 19.689359342075125 ], [ -101.161848355242427, 19.689508822879262 ], [ -101.161931523223373, 19.689663787418823 ], [ -101.162003812676986, 19.689823572128638 ], [ -101.162064914024668, 19.689987492801695 ], [ -101.162114565593313, 19.690154847518723 ], [ -101.162152554736096, 19.690324919653701 ], [ -101.162178718743718, 19.690496980942306 ], [ -101.162192945541719, 19.690670294600324 ], [ -101.162195174170932, 19.690844118478498 ], [ -101.162185395049278, 19.691017708240402 ], [ -101.16216365001344, 19.69119032054974 ], [ -101.162130032140254, 19.691361216253441 ], [ -101.162084685349001, 19.691529663546739 ], [ -101.16202780378562, 19.691694941107048 ], [ -101.161959630992001, 19.691856341182778 ], [ -101.161880458863692, 19.692013172624179 ], [ -101.161790626400489, 19.692164763843188 ], [ -101.161690518255241, 19.692310465689371 ], [ -101.161580563087085, 19.692449654230007 ], [ -101.161461231726264, 19.692581733422056 ], [ -101.161333035158137, 19.692706137664825 ], [ -101.161196522335274, 19.692822334222239 ], [ -101.161052277826798, 19.692929825504411 ], [ -101.160900919315253, 19.69302815119871 ], [ -101.160743094951386, 19.6931168902412 ], [ -101.160579480578562, 19.693195662620049 ], [ -101.160410776838418, 19.693264131003023 ], [ -101.160237706170292, 19.693322002182367 ], [ -101.16006100971714, 19.693369028330583 ], [ -101.159881444151495, 19.693405008061919 ], [ -101.159699778434643, 19.693429787294967 ], [ -101.159516790523284, 19.693443259912609 ], [ -101.159333264037542, 19.693445368216612 ], [ -101.159149984904744, 19.693436103174783 ], [ -101.158967737993379, 19.693415504459722 ], [ -101.158787303751367, 19.693383660279011 ], [ -101.158609454863509, 19.693340706997404 ], [ -101.158434952942002, 19.693286828552896 ], [ -101.158264545264572, 19.693222255668971 ], [ -101.158098961573842, 19.693147264866461 ], [ -101.157938910952041, 19.693062177279291 ], [ -101.15778507878403, 19.692967357279105 ], [ -101.157638123822053, 19.692863210914783 ], [ -101.157498675364508, 19.692750184173367 ], [ -101.157367330560916, 19.692628761070033 ], [ -101.157244651854697, 19.692499461575178 ], [ -101.157131164574608, 19.692362839387457 ], [ -101.157027354685226, 19.692219479562521 ], [ -101.156933666706038, 19.692069996007348 ], [ -101.156850501808151, 19.691915028851131 ], [ -101.156778216096612, 19.691755241703792 ], [ -101.156717119085954, 19.691591318814066 ], [ -101.156667472375119, 19.691423962139144 ], [ -101.15662948852777, 19.691253888338547 ], [ -101.156603330162625, 19.691081825705098 ], [ -101.156589109257609, 19.690908511046022 ], [ -101.156586886671036, 19.690734686527705 ], [ -101.156596671881573, 19.690561096497529 ], [ -101.156618422948426, 19.690388484296381 ], [ -101.156652046691477, 19.690217589075473 ], [ -101.156697399091087, 19.690049142631299 ], [ -101.156754285905322, 19.689883866271948 ], [ -101.156822463502451, 19.689722467728448 ], [ -101.156901639904731, 19.689565638124318 ], [ -101.156991476039238, 19.6894140490162 ], [ -101.157091587190337, 19.689268349518404 ], [ -101.157201544647407, 19.689129163523479 ], [ -101.157320877541082, 19.688997087030895 ], [ -101.15744907485977, 19.688872685595157 ], [ -101.157585587638039, 19.688756491904314 ], [ -101.15772983130752, 19.688649003499208 ], [ -101.157881188200079, 19.688550680643242 ], [ -101.158039010192624, 19.688461944351776 ], [ -101.158202621482374, 19.6883831745896 ], [ -101.158371321480459, 19.688314708644143 ], [ -101.15854438781156, 19.688256839681468 ], [ -101.158721079406902, 19.688209815491152 ] ] ] } },
{ "type": "Feature", "properties": { "fid": 47, "nombre": "La corona", "tipo": "Crucero", "causa1": "Grandes estructuras con predominio de concreto que absorben y almacena calor", "causa2": "Grandes avenidas con predominio de superficie de asfalto que absorbe y almacena calor", "causa3": "Falta de árbolado y/o áreas verdes", "est_mean": 38.412748085622141, "est_median": 38.370014960000049, "est_max": 41.825633180000011 }, "geometry": { "type": "Polygon", "coordinates": [ [ [ -101.223596328186545, 19.703650297057109 ], [ -101.223712678873127, 19.70355400472225 ], [ -101.223835430076335, 19.703465125427662 ], [ -101.223964056161179, 19.703384039755051 ], [ -101.224098006339048, 19.703311094912845 ], [ -101.224236707026137, 19.703246603249621 ], [ -101.224379564299426, 19.703190840916786 ], [ -101.224525966439728, 19.703144046686255 ], [ -101.224675286550777, 19.703106420928222 ], [ -101.224826885243473, 19.703078124753237 ], [ -101.224980113373377, 19.703059279322531 ], [ -101.225134314819996, 19.703049965329264 ], [ -101.22528882929609, 19.703050222653086 ], [ -101.22544299517449, 19.703060050189471 ], [ -101.225596152320932, 19.703079405854478 ], [ -101.225747644920361, 19.703108206764934 ], [ -101.225896824284703, 19.703146329593416 ], [ -101.226043051630285, 19.70319361109626 ], [ -101.226185700812678, 19.703249848812536 ], [ -101.226324161007639, 19.703314801930929 ], [ -101.226457839326272, 19.703388192320809 ], [ -101.226586163353687, 19.703469705723052 ], [ -101.226708583599731, 19.703558993095626 ], [ -101.226824575851936, 19.703655672108006 ], [ -101.226933643419969, 19.703759328778226 ], [ -101.227035319262484, 19.703869519245341 ], [ -101.227129167987016, 19.703985771669938 ], [ -101.227214787714459, 19.704107588254384 ], [ -101.227291811799944, 19.70423444737423 ], [ -101.227359910403095, 19.704365805811701 ], [ -101.227418791900632, 19.704501101081583 ], [ -101.227468204135377, 19.704639753839711 ], [ -101.227507935496348, 19.704781170363606 ], [ -101.227537815825229, 19.704924745094722 ], [ -101.227557717145459, 19.705069863231333 ], [ -101.22756755421058, 19.705215903361211 ], [ -101.227567284869792, 19.705362240122366 ], [ -101.227556910248893, 19.705508246880953 ], [ -101.227536474745889, 19.705653298414575 ], [ -101.227506065841382, 19.705796773589498 ], [ -101.227465813724464, 19.705938058020525 ], [ -101.227415890735642, 19.706076546701887 ], [ -101.227356510629235, 19.70621164659806 ], [ -101.22728792765858, 19.706342779183334 ], [ -101.227210435487493, 19.706469382919238 ], [ -101.227124365933221, 19.706590915659358 ], [ -101.2270300875457, 19.706706856970971 ], [ -101.226928004029688, 19.706816710363828 ], [ -101.226818552516164, 19.706920005416467 ], [ -101.226702201690586, 19.707016299790755 ], [ -101.226579449785916, 19.70710518112632 ], [ -101.226450822449166, 19.707186268806542 ], [ -101.226316870490393, 19.707259215588635 ], [ -101.226178167523841, 19.707323709090847 ], [ -101.226035307511523, 19.707379473130299 ], [ -101.225888902219523, 19.707426268905859 ], [ -101.225739578598009, 19.707463896020929 ], [ -101.225587976096165, 19.707492193341704 ], [ -101.225434743923614, 19.707511039687372 ], [ -101.225280538269956, 19.707520354349107 ], [ -101.22512601949451, 19.707520097435829 ], [ -101.224971849297944, 19.707510270045031 ], [ -101.224818687888401, 19.707490914258177 ], [ -101.224667191153927, 19.707462112960506 ], [ -101.22451800785332, 19.707423989486081 ], [ -101.2243717768376, 19.707376707089615 ], [ -101.224229124313979, 19.707320468247325 ], [ -101.224090661163928, 19.707255513789793 ], [ -101.223956980326832, 19.707182121870563 ], [ -101.223828654260728, 19.707100606774922 ], [ -101.223706232490599, 19.707011317573894 ], [ -101.223590239255046, 19.706914636629254 ], [ -101.223481171261213, 19.706810977956067 ], [ -101.223379495557708, 19.706700785449534 ], [ -101.22328564753461, 19.706584530983957 ], [ -101.223200029059086, 19.706462712391904 ], [ -101.22312300675452, 19.706335851332167 ], [ -101.223054910430832, 19.706204491055708 ], [ -101.222996031672309, 19.70606919407922 ], [ -101.222946622589262, 19.705930539776048 ], [ -101.222906894738742, 19.705789121895119 ], [ -101.222877018219009, 19.705645546018218 ], [ -101.222857120941441, 19.705500426966641 ], [ -101.222847288083329, 19.705354386168292 ], [ -101.222847561723484, 19.7052080489966 ], [ -101.222857940662564, 19.705062042092415 ], [ -101.222878380428654, 19.704916990680655 ], [ -101.222908793468207, 19.704773515892935 ], [ -101.222949049521389, 19.704632232107851 ], [ -101.222998976180364, 19.704493744320118 ], [ -101.22305835962797, 19.704358645549959 ], [ -101.223126945553744, 19.704227514303827 ], [ -101.223204440243279, 19.704100912097264 ], [ -101.223290511836268, 19.703979381050548 ], [ -101.223384791747847, 19.703863441567407 ], [ -101.223486876247208, 19.703753590106789 ], [ -101.223596328186545, 19.703650297057109 ] ] ] } },
{ "type": "Feature", "properties": { "fid": 81, "nombre": "Mercado de abastos", "tipo": "Central de abasto", "causa1": "Grandes avenidas con predominio de superficie de asfalto que absorbe y almacena calor", "causa2": "Falta de árbolado y/o áreas verdes", "causa3": null, "est_mean": 37.872066413, "est_median": 37.884656120000045, "est_max": 40.369556660000057 }, "geometry": { "type": "Polygon", "coordinates": [ [ [ -101.169542959899658, 19.715107096180404 ], [ -101.169674062907973, 19.715055899101579 ], [ -101.169808420964046, 19.715012931679166 ], [ -101.169945458743072, 19.714978377897925 ], [ -101.170084589447271, 19.714952385715197 ], [ -101.170225217318219, 19.714935066427334 ], [ -101.170366740187632, 19.714926494193303 ], [ -101.170508552055594, 19.714926705717165 ], [ -101.170650045685164, 19.714935700090972 ], [ -101.170790615202222, 19.714953438798705 ], [ -101.170929658689545, 19.714979845881206 ], [ -101.171066580763892, 19.715014808261426 ], [ -101.171200795125188, 19.715058176228609 ], [ -101.171331727066715, 19.715109764079358 ], [ -101.171458815935836, 19.715169350912678 ], [ -101.171581517534435, 19.715236681575877 ], [ -101.171699306448986, 19.715311467756997 ], [ -101.171811678300244, 19.715393389219297 ], [ -101.171918151902887, 19.715482095172415 ], [ -101.172018271325868, 19.71557720577427 ], [ -101.172111607844712, 19.715678313757483 ], [ -101.172197761777298, 19.715784986173158 ], [ -101.172276364195426, 19.715896766244668 ], [ -101.172347078504671, 19.716013175323404 ], [ -101.172409601885832, 19.716133714938273 ], [ -101.172463666591838, 19.716257868930047 ], [ -101.172509041094486, 19.716385105661473 ], [ -101.172545531076096, 19.716514880293623 ], [ -101.172572980262004, 19.716646637118899 ], [ -101.172591271089942, 19.716779811940487 ], [ -101.172600325213949, 19.71691383448826 ], [ -101.172600103840082, 19.717048130860654 ], [ -101.172590607893127, 19.717182125982148 ], [ -101.172571878012789, 19.717315246065809 ], [ -101.172543994380277, 19.717446921070277 ], [ -101.172507076375268, 19.717576587140837 ], [ -101.172461282065044, 19.717703689023931 ], [ -101.172406807528105, 19.717827682444927 ], [ -101.17234388601473, 19.717948036438816 ], [ -101.172272786948554, 19.718064235624063 ], [ -101.172193814773138, 19.718175782409627 ], [ -101.172107307648474, 19.718282199125881 ], [ -101.172013636003157, 19.718383030070196 ], [ -101.17191320094831, 19.718477843458551 ], [ -101.17180643255999, 19.718566233274625 ], [ -101.171693788037601, 19.718647821008648 ], [ -101.171575749746154, 19.718722257278394 ], [ -101.171452823150545, 19.718789223325501 ], [ -101.17132553465099, 19.718848432380604 ], [ -101.17119442932875, 19.718899630891546 ], [ -101.17106006861178, 19.718942599609239 ], [ -101.170923027870387, 19.71897715452674 ], [ -101.170783893953057, 19.719003147667291 ], [ -101.170643262673181, 19.719020467718128 ], [ -101.170501736257378, 19.719029040507252 ], [ -101.170359920766231, 19.719028829321076 ], [ -101.170218423498696, 19.719019835061793 ], [ -101.17007785039111, 19.719002096243447 ], [ -101.169938803422156, 19.718975688827111 ], [ -101.169801878034647, 19.718940725895528 ], [ -101.169667660585333, 19.718897357168885 ], [ -101.16953672583378, 19.718845768363582 ], [ -101.169409634480701, 19.718786180396947 ], [ -101.169286930766731, 19.718718848441064 ], [ -101.169169140141548, 19.718644060829998 ], [ -101.1690567670137, 19.718562137824968 ], [ -101.168950292590324, 19.718473430242739 ], [ -101.168850172816548, 19.718378317953253 ], [ -101.16875683642283, 19.718277208252772 ], [ -101.168670683089132, 19.718170534119569 ], [ -101.168592081733451, 19.718058752359656 ], [ -101.168521368931991, 19.717942341650545 ], [ -101.168458847478163, 19.717821800491219 ], [ -101.168404785086082, 19.717697645067314 ], [ -101.16835941324436, 19.717570407040618 ], [ -101.168322926225102, 19.717440631272201 ], [ -101.16829548025234, 19.71730887348911 ], [ -101.168277192833315, 19.71717569790454 ], [ -101.168268142255712, 19.717041674801685 ], [ -101.16826836725275, 19.716907378091598 ], [ -101.168277866837698, 19.716773382855578 ], [ -101.168296600308551, 19.716640262882528 ], [ -101.168324487422666, 19.716508588211902 ], [ -101.16836140874085, 19.716378922692705 ], [ -101.168407206139065, 19.716251821569067 ], [ -101.168461683486044, 19.716127829102629 ], [ -101.168524607483377, 19.716007476242048 ], [ -101.168595708664938, 19.715891278349488 ], [ -101.168674682550986, 19.715779732993866 ], [ -101.168761190952253, 19.715673317820336 ], [ -101.168854863418275, 19.715572488505138 ], [ -101.168955298823917, 19.715477676804419 ], [ -101.169062067087125, 19.715389288705612 ], [ -101.169174711010612, 19.71530770268912 ], [ -101.169292748239627, 19.715233268107774 ], [ -101.16941567332745, 19.715166303691039 ], [ -101.169542959899658, 19.715107096180404 ] ] ] } }
]
}
